S-NET B                 
1 43187U 18014H   22305.48498507  .00004334  00000+0  36734-3 0  9993
2 43187  97.6453 208.4911 0010243 184.5706 175.5425 14.98447550259434
S-NET A                 
1 43188U 18014J   22305.61884805  .00004293  00000+0  36390-3 0  9991
2 43188  97.6459 208.6938 0010231 184.1702 175.9437 14.98448871259457
S-NET C                 
1 43189U 18014K   22305.61982470  .00004344  00000+0  36816-3 0  9999
2 43189  97.6456 208.6099 0010181 183.7975 176.3172 14.98446087258002
FENGMANIU-1 (FMN-1)     
1 43192U 18015A   22305.81418458  .00070857  00000+0  13472-2 0  9990
2 43192  97.5503  95.5556 0010466 257.2010 244.1255 15.47947885264619
SHAONIAN XING           
1 43199U 18015H   22305.81090019  .00033793  00000+0  85977-3 0  9994
2 43199  97.5309  89.1600 0011709 268.7811 234.7608 15.39455161264536
LUOJIA-1 01             
1 43485U 18048B   22305.88797751  .00001614  00000+0  23231-3 0  9994
2 43485  97.9265  24.9046 0012358 113.9466 246.3052 14.77669318238162
SURFSAT                 
1 43614U 18070B   22305.85239306  .00101473  00000+0  85493-3 0  9999
2 43614  93.0074 157.4294 0007330 161.8508 198.3026 15.69489536232492
CP7 (DAVE)              
1 43615U 18070C   22305.32742007  .00076638  00000+0  74091-3 0  9995
2 43615  93.0071 156.8691 0007669 171.8584 188.2811 15.66162459232358
CZ-4B R/B               
1 43656U 18081B   22305.66852778  .00000356  00000+0  12433-3 0  9992
2 43656  99.4182  90.7356 0208930 110.0859 252.2939 14.30647073209979
CUBEBEL-1 (BSUSAT-1)    
1 43666U 18083E   22305.85346314  .00015227  00000+0  59622-3 0  9994
2 43666  97.4107 333.1220 0011112 202.8310 245.0855 15.25841117222416
CHANGSHAGAOXIN (TY 4-01)
1 43669U 18083H   22305.85342674  .00014174  00000+0  58512-3 0  9999
2 43669  97.4056 328.6740 0008113 198.5083 267.6263 15.24108429222215
TEN-KOH                 
1 43677U 18084G   22305.83029059  .00002492  00000+0  25426-3 0  9994
2 43677  97.9831  77.3152 0015789 174.4995 185.6400 14.91501617218156
DIWATA-2B               
1 43678U 18084H   22305.90775366  .00001194  00000+0  12224-3 0  9992
2 43678  97.9910  80.9667 0009487 184.6673 175.4453 14.92434512218357
STARS-AO                
1 43679U 18084J   22305.83996709  .00004055  00000+0  38346-3 0  9993
2 43679  97.9937  83.1951 0008549 189.9715 170.1336 14.94232402218450
AUTCUBE 2               
1 43681U 18084K   22305.65133134  .00003814  00000+0  36797-3 0  9991
2 43681  97.9897  81.4391 0009147 184.5583 175.5554 14.93469177218323
IRVINE01                
1 43693U 18088D   22305.50804396  .00117560  00000+0  19211-2 0  9992
2 43693  85.0265 217.1738 0006173  15.5246 344.6200 15.52111604221350
ES'HAIL 2               
1 43700U 18090A   22305.83278609  .00000137  00000+0  00000+0 0  9996
2 43700   0.0132 266.4941 0001083 316.3731 143.8468  1.00272141 14401
FACSAT-1                
1 43721U 18096C   22305.85960932  .00042105  00000+0  97067-3 0  9998
2 43721  97.3405  25.9586 0010725 274.3033 222.6795 15.42405228219108
CENTAURI-2              
1 43722U 18096D   22305.65013705  .00069531  00000+0  12961-2 0  9995
2 43722  97.3459  28.7018 0010837 270.8972  89.1037 15.48518220219238
3CAT-1                  
1 43728U 18096K   22305.20624240  .00053216  00000+0  10075-2 0  9991
2 43728  97.3471  29.0152 0010236 273.7420  86.2659 15.48149108219204
INNOSAT-2               
1 43738U 18096V   22305.84495396  .00310041  00000+0  20074-2 0  9992
2 43738  97.3538  39.2066 0011523 253.1243 253.8978 15.75089469219895
REAKTOR HELLO WORLD     
1 43743U 18096AA  22305.63963136  .00025705  00000+0  69093-3 0  9992
2 43743  97.3431  25.1629 0012533 287.1701  72.8171 15.37807811219015
ELYSIUM STAR 2 & LFF    
1 43760U 18099C   22305.82010566  .00009157  00000+0  73652-3 0  9994
2 43760  97.6207  11.4262 0011275 153.1080 207.0730 15.00159027213705
2018-099D               
1 43761U 18099D   22305.91986938  .00001786  00000+0  16299-3 0  9994
2 43761  97.6070   8.8923 0014568 162.6192 197.5534 14.96230585213578
AISTECHSAT 2            
1 43768U 18099L   22305.62106488  .00003044  00000+0  27392-3 0  9998
2 43768  97.6019   7.0391 0011412 162.2076 197.9548 14.96309990213194
FOX-1CLIFF (AO-95)      
1 43770U 18099N   22305.84113352  .00004310  00000+0  37729-3 0  9995
2 43770  97.6051   8.5676 0014277 170.6469 189.5022 14.97143999213567
RANGE-A                 
1 43772U 18099Q   22305.83716272  .00005479  00000+0  46811-3 0  9995
2 43772  97.6172  10.5862 0013626 158.1718 202.0088 14.97988388213593
RANGE-B                 
1 43773U 18099R   22305.60723490  .00003239  00000+0  28915-3 0  9998
2 43773  97.5987   6.9873 0013703 156.5476 203.6374 14.96555124213500
2018-099T               
1 43775U 18099T   22305.60502330  .00003345  00000+0  29912-3 0  9994
2 43775  97.6065   8.3443 0014810 160.8624 199.3157 14.96453051213519
MOVE-II                 
1 43780U 18099Y   22305.66488932  .00008877  00000+0  73695-3 0  9999
2 43780  97.6103   9.8945 0013600 160.7821 199.3918 14.98928233213601
SNUSAT-2                
1 43782U 18099AA  22305.80803065  .00004305  00000+0  37578-3 0  9997
2 43782  97.6073   9.0317 0012960 152.7574 207.4331 14.97271031213581
SNUGLITE                
1 43784U 18099AC  22305.62306161  .00004107  00000+0  35606-3 0  9994
2 43784  97.6026   8.4775 0014615 163.6434 196.5263 14.97548015213588
ITASAT 1                
1 43786U 18099AE  22305.82472578  .00003057  00000+0  26869-3 0  9998
2 43786  97.6090   9.5396 0014827 162.6496 197.5236 14.97199395213601
KAZSCISAT-1             
1 43787U 18099AF  22305.65064876  .00007113  00000+0  59345-3 0  9990
2 43787  97.5994   8.7024 0014475 157.9204 202.2645 14.98794035213641
EAGLET-I                
1 43790U 18099AJ  22305.64147475  .00003039  00000+0  26685-3 0  9994
2 43790  97.6072   9.9052 0013269 167.1765 192.9797 14.97253471213312
ESEO                    
1 43792U 18099AL  22305.16758376  .00001432  00000+0  13083-3 0  9994
2 43792  97.6026   8.4456 0013323 165.6961 194.4640 14.96493554213273
CSIM-FD                 
1 43793U 18099AM  22305.64332765  .00007694  00000+0  62900-3 0  9996
2 43793  97.6093  10.9216 0013021 163.4922 196.6727 14.99571105213438
ASTROCAST 0.1           
1 43798U 18099AS  22305.19734763  .00005709  00000+0  47986-3 0  9997
2 43798  97.6090  10.1761 0013340 143.3360 216.8778 14.98604508213584
JY1SAT (JO-97)          
1 43803U 18099AX  22305.85782588  .00005285  00000+0  45302-3 0  9994
2 43803  97.6041   9.3757 0015302 160.4992 199.6819 14.97853321213631
SUOMI-100               
1 43804U 18099AY  22305.81930362  .00003831  00000+0  33100-3 0  9994
2 43804  97.6052   9.2303 0014777 160.8324 199.3458 14.97719476213636
AL-FARABI 2             
1 43805U 18099AZ  22305.94665482  .00006035  00000+0  50791-3 0  9991
2 43805  97.6090  10.0128 0014706 156.4768 203.7133 14.98520293213682
CENTAURI-1              
1 43809U 18099BD  22305.81643040  .00002948  00000+0  25869-3 0  9994
2 43809  97.6066   9.4940 0015020 161.9424 198.2335 14.97281428213329
CHOMPTT                 
1 43855U 18104G   22305.78626298  .00013576  00000+0  46464-3 0  9997
2 43855  85.0324 319.4520 0017177  89.6351 270.6863 15.29962713215700
DAVINCI                 
1 43857U 18104J   22305.74599365  .00087193  00000+0  15245-2 0  9997
2 43857  85.0204 315.3547 0011566 104.7933 255.4606 15.50255329216028
UWE-4                   
1 43880U 18111E   22305.42315031  .00006316  00000+0  52538-3 0  9997
2 43880  97.6570 209.3119 0009950 207.6426 152.4269 14.99001650208211
ZACUBE-2                
1 43907U 18111AH  22305.77447865  .00014611  00000+0  50203-3 0  9990
2 43907  97.1677 187.2153 0017795 315.8492 130.2756 15.30053124214274
MICRODRAGON             
1 43935U 19003D   22305.81191859  .00010103  00000+0  37534-3 0  9990
2 43935  97.1272 329.7902 0017679  51.4964 308.7859 15.27585411210658
AOBA VELOX-IV           
1 43940U 19003J   22305.83724068  .00049348  00000+0  10181-2 0  9993
2 43940  97.1138 338.1885 0014098  15.1343 345.0326 15.45616062211289
M6P                     
1 44109U 19018AF  22305.50127660  .00031612  00000+0  64845-3 0  9998
2 44109  97.3886  31.4460 0041207 352.9825   7.0841 15.45048923200572
FORMOSAT 7-4            
1 44350U 19036M   22305.89579492  .00006353  00000+0  35546-3 0  9992
2 44350  23.9988 157.6703 0005262 289.5847  70.4089 15.10412765184265
PAINANI 1               
1 44365U 19037A   22305.85592226  .00127622  00000+0  10253-2 0  9995
2 44365  44.9923 303.2561 0008667  53.4029 306.7666 15.69842015188692
METEOR-M2 2             
1 44387U 19038A   22305.82713553  .00000026  00000+0  30882-4 0  9995
2 44387  98.7416 265.6159 0000562 177.9646 182.1539 14.23727421172956
VDNH-80                 
1 44392U 19038G   22305.79501137  .00014946  00000+0  70333-3 0  9990
2 44392  97.6512 277.0877 0019411  23.8264  63.4744 15.19487811183682
D-STAR ONE (LIGHTSAT)   
1 44393U 19038H   22305.85040011  .00015130  00000+0  70888-3 0  9998
2 44393  97.6523 277.0601 0019653  24.7029 335.5142 15.19630184183887
AMGU-1 (AMURSAT)        
1 44394U 19038J   22305.82575530  .00017207  00000+0  79546-3 0  9992
2 44394  97.6438 277.0353 0019955  21.7953 338.4127 15.20059127183884
DOT-1                   
1 44399U 19038P   22305.69571404  .00010260  00000+0  52351-3 0  9995
2 44399  97.6579 275.2913 0023307  30.4519 329.8061 15.16690287183736
SOKRAT                  
1 44404U 19038U   22305.64161193  .00017962  00000+0  83617-3 0  9992
2 44404  97.6516 276.4573 0019851  27.1457 333.0811 15.19810731183834
LUCKY-7                 
1 44406U 19038W   22305.65795429  .00012094  00000+0  60661-3 0  9995
2 44406  97.6566 275.6988 0022748  22.7404 337.4831 15.17255886183757
D-STAR ONE (EXOCONNECT) 
1 44410U 19038AA  22305.64311891  .00030349  00000+0  12414-2 0  9991
2 44410  97.6451 277.9230 0017955  23.2420 336.9625 15.24138673183957
